[Satellite]
VERSION=1.1
NAME=FLOCK 3P-71
NICKNAME=FLOCK 3P-71
TLE1=1 42024U 17008CE  18020.96413216  .00002630  00000-0  11206-3 0  9995
TLE2=2 42024  97.4717  86.6751 0009368 146.2911 213.8924 15.23821022 50552
